CCSDS_OMM_VERS = 2.0
CREATION_DATE  = 
ORIGINATOR     = 

OBJECT_NAME    = AQUA
OBJECT_ID      = 2002-022A
CENTER_NAME    = EARTH
REF_FRAME      = TEME
TIME_SYSTEM    = UTC
MEAN_ELEMENT_THEORY = SGP/SGP4

EPOCH          = 2026-03-31T20:28:33.767040
MEAN_MOTION    = 14.62028904
ECCENTRICITY   = .0001244
INCLINATION    = 98.4212
RA_OF_ASC_NODE = 58.6282
ARG_OF_PERICENTER = 116.7860
MEAN_ANOMALY   = 273.4354

EPHEMERIS_TYPE = 0
CLASSIFICATION_TYPE = U
NORAD_CAT_ID   = 27424
ELEMENT_SET_NO = 999
REV_AT_EPOCH   = 27197
BSTAR          = .28673E-3
MEAN_MOTION_DOT = .1389E-4
MEAN_MOTION_DDOT = 0

CCSDS_OMM_VERS = 2.0
CREATION_DATE  = 
ORIGINATOR     = 

OBJECT_NAME    = CZ-4B R/B
OBJECT_ID      = 2002-024C
CENTER_NAME    = EARTH
REF_FRAME      = TEME
TIME_SYSTEM    = UTC
MEAN_ELEMENT_THEORY = SGP/SGP4

EPOCH          = 2026-03-31T21:07:56.669664
MEAN_MOTION    = 14.14551586
ECCENTRICITY   = .0049385
INCLINATION    = 98.8790
RA_OF_ASC_NODE = 144.1707
ARG_OF_PERICENTER = 320.9294
MEAN_ANOMALY   = 212.1639

EPHEMERIS_TYPE = 0
CLASSIFICATION_TYPE = U
NORAD_CAT_ID   = 27432
ELEMENT_SET_NO = 999
REV_AT_EPOCH   = 23237
BSTAR          = .53939E-4
MEAN_MOTION_DOT = .6E-6
MEAN_MOTION_DDOT = 0

CCSDS_OMM_VERS = 2.0
CREATION_DATE  = 
ORIGINATOR     = 

OBJECT_NAME    = MIDORI II (ADEOS-II)
OBJECT_ID      = 2002-056A
CENTER_NAME    = EARTH
REF_FRAME      = TEME
TIME_SYSTEM    = UTC
MEAN_ELEMENT_THEORY = SGP/SGP4

EPOCH          = 2026-03-31T08:45:39.916512
MEAN_MOTION    = 14.29301765
ECCENTRICITY   = .00006068
INCLINATION    = 98.7806
RA_OF_ASC_NODE = 48.9976
ARG_OF_PERICENTER = 20.0869
MEAN_ANOMALY   = 340.0336

EPHEMERIS_TYPE = 0
CLASSIFICATION_TYPE = U
NORAD_CAT_ID   = 27597
ELEMENT_SET_NO = 999
REV_AT_EPOCH   = 21339
BSTAR          = .17776772E-3
MEAN_MOTION_DOT = .407E-5
MEAN_MOTION_DDOT = 0

CCSDS_OMM_VERS = 2.0
CREATION_DATE  = 
ORIGINATOR     = 

OBJECT_NAME    = H-2A R/B
OBJECT_ID      = 2002-056E
CENTER_NAME    = EARTH
REF_FRAME      = TEME
TIME_SYSTEM    = UTC
MEAN_ELEMENT_THEORY = SGP/SGP4

EPOCH          = 2026-03-31T21:36:25.968384
MEAN_MOTION    = 14.33776214
ECCENTRICITY   = .0071411
INCLINATION    = 98.3241
RA_OF_ASC_NODE = 50.4255
ARG_OF_PERICENTER = 95.2984
MEAN_ANOMALY   = 330.1625

EPHEMERIS_TYPE = 0
CLASSIFICATION_TYPE = U
NORAD_CAT_ID   = 27601
ELEMENT_SET_NO = 999
REV_AT_EPOCH   = 21729
BSTAR          = .15751E-3
MEAN_MOTION_DOT = .409E-5
MEAN_MOTION_DDOT = 0

CCSDS_OMM_VERS = 2.0
CREATION_DATE  = 
ORIGINATOR     = 

OBJECT_NAME    = CZ-4B R/B
OBJECT_ID      = 2003-049C
CENTER_NAME    = EARTH
REF_FRAME      = TEME
TIME_SYSTEM    = UTC
MEAN_ELEMENT_THEORY = SGP/SGP4

EPOCH          = 2026-03-31T17:35:27.585888
MEAN_MOTION    = 14.55040371
ECCENTRICITY   = .0048454
INCLINATION    = 98.6894
RA_OF_ASC_NODE = 86.5059
ARG_OF_PERICENTER = 163.1370
MEAN_ANOMALY   = 197.1450

EPHEMERIS_TYPE = 0
CLASSIFICATION_TYPE = U
NORAD_CAT_ID   = 28059
ELEMENT_SET_NO = 999
REV_AT_EPOCH   = 18980
BSTAR          = .12422E-3
MEAN_MOTION_DOT = .492E-5
MEAN_MOTION_DDOT = 0

CCSDS_OMM_VERS = 2.0
CREATION_DATE  = 
ORIGINATOR     = 

OBJECT_NAME    = CZ-2C R/B
OBJECT_ID      = 2004-012C
CENTER_NAME    = EARTH
REF_FRAME      = TEME
TIME_SYSTEM    = UTC
MEAN_ELEMENT_THEORY = SGP/SGP4

EPOCH          = 2026-03-31T03:29:59.913312
MEAN_MOTION    = 15.67204291
ECCENTRICITY   = .00134436
INCLINATION    = 97.7178
RA_OF_ASC_NODE = 157.5086
ARG_OF_PERICENTER = 224.2126
MEAN_ANOMALY   = 135.8060

EPHEMERIS_TYPE = 0
CLASSIFICATION_TYPE = U
NORAD_CAT_ID   = 28222
ELEMENT_SET_NO = 999
REV_AT_EPOCH   = 20763
BSTAR          = .73084359E-3
MEAN_MOTION_DOT = .79102E-3
MEAN_MOTION_DDOT = 0

CCSDS_OMM_VERS = 2.0
CREATION_DATE  = 
ORIGINATOR     = 

OBJECT_NAME    = SL-16 R/B
OBJECT_ID      = 2004-021B
CENTER_NAME    = EARTH
REF_FRAME      = TEME
TIME_SYSTEM    = UTC
MEAN_ELEMENT_THEORY = SGP/SGP4

EPOCH          = 2026-03-31T12:27:53.669088
MEAN_MOTION    = 14.14596697
ECCENTRICITY   = .00051324
INCLINATION    = 71.0010
RA_OF_ASC_NODE = 186.6824
ARG_OF_PERICENTER = 342.7540
MEAN_ANOMALY   = 17.3407

EPHEMERIS_TYPE = 0
CLASSIFICATION_TYPE = U
NORAD_CAT_ID   = 28353
ELEMENT_SET_NO = 999
REV_AT_EPOCH   = 12592
BSTAR          = .18689917E-3
MEAN_MOTION_DOT = .312E-5
MEAN_MOTION_DDOT = 0

CCSDS_OMM_VERS = 2.0
CREATION_DATE  = 
ORIGINATOR     = 

OBJECT_NAME    = CZ-4B R/B
OBJECT_ID      = 2004-035C
CENTER_NAME    = EARTH
REF_FRAME      = TEME
TIME_SYSTEM    = UTC
MEAN_ELEMENT_THEORY = SGP/SGP4

EPOCH          = 2026-03-31T13:37:29.370720
MEAN_MOTION    = 15.29449768
ECCENTRICITY   = .0030101
INCLINATION    = 97.3461
RA_OF_ASC_NODE = 124.5493
ARG_OF_PERICENTER = 249.6075
MEAN_ANOMALY   = 110.1932

EPHEMERIS_TYPE = 0
CLASSIFICATION_TYPE = U
NORAD_CAT_ID   = 28415
ELEMENT_SET_NO = 999
REV_AT_EPOCH   = 18325
BSTAR          = .36106E-3
MEAN_MOTION_DOT = .10377E-3
MEAN_MOTION_DDOT = 0

CCSDS_OMM_VERS = 2.0
CREATION_DATE  = 
ORIGINATOR     = 

OBJECT_NAME    = CZ-2C R/B
OBJECT_ID      = 2004-046B
CENTER_NAME    = EARTH
REF_FRAME      = TEME
TIME_SYSTEM    = UTC
MEAN_ELEMENT_THEORY = SGP/SGP4

EPOCH          = 2026-03-31T12:03:53.000928
MEAN_MOTION    = 14.27000301
ECCENTRICITY   = .0140619
INCLINATION    = 98.1978
RA_OF_ASC_NODE = 4.1276
ARG_OF_PERICENTER = 90.3664
MEAN_ANOMALY   = 271.3632

EPHEMERIS_TYPE = 0
CLASSIFICATION_TYPE = U
NORAD_CAT_ID   = 28480
ELEMENT_SET_NO = 999
REV_AT_EPOCH   = 11161
BSTAR          = .94841297E-4
MEAN_MOTION_DOT = .216E-5
MEAN_MOTION_DDOT = 0

CCSDS_OMM_VERS = 2.0
CREATION_DATE  = 
ORIGINATOR     = 

OBJECT_NAME    = ARIANE 5 R/B
OBJECT_ID      = 2004-049H
CENTER_NAME    = EARTH
REF_FRAME      = TEME
TIME_SYSTEM    = UTC
MEAN_ELEMENT_THEORY = SGP/SGP4

EPOCH          = 2026-03-31T11:02:00.753216
MEAN_MOTION    = 14.85306977
ECCENTRICITY   = .0082885
INCLINATION    = 98.2658
RA_OF_ASC_NODE = 259.7367
ARG_OF_PERICENTER = 280.6849
MEAN_ANOMALY   = 78.5040

EPHEMERIS_TYPE = 0
CLASSIFICATION_TYPE = U
NORAD_CAT_ID   = 28499
ELEMENT_SET_NO = 999
REV_AT_EPOCH   = 14902
BSTAR          = .1367E-3
MEAN_MOTION_DOT = .1183E-4
MEAN_MOTION_DDOT = 0

CCSDS_OMM_VERS = 2.0
CREATION_DATE  = 
ORIGINATOR     = 

OBJECT_NAME    = CZ-2D R/B
OBJECT_ID      = 2005-024B
CENTER_NAME    = EARTH
REF_FRAME      = TEME
TIME_SYSTEM    = UTC
MEAN_ELEMENT_THEORY = SGP/SGP4

EPOCH          = 2026-03-31T18:12:58.983264
MEAN_MOTION    = 15.62213914
ECCENTRICITY   = .0001977
INCLINATION    = 97.3567
RA_OF_ASC_NODE = 106.7457
ARG_OF_PERICENTER = 314.5126
MEAN_ANOMALY   = 45.5970

EPHEMERIS_TYPE = 0
CLASSIFICATION_TYPE = U
NORAD_CAT_ID   = 28738
ELEMENT_SET_NO = 999
REV_AT_EPOCH   = 14322
BSTAR          = .62451E-3
MEAN_MOTION_DOT = .55075E-3
MEAN_MOTION_DDOT = 0

CCSDS_OMM_VERS = 2.0
CREATION_DATE  = 
ORIGINATOR     = 

OBJECT_NAME    = ALOS (DAICHI)
OBJECT_ID      = 2006-002A
CENTER_NAME    = EARTH
REF_FRAME      = TEME
TIME_SYSTEM    = UTC
MEAN_ELEMENT_THEORY = SGP/SGP4

EPOCH          = 2026-03-31T15:03:27.442944
MEAN_MOTION    = 14.69878685
ECCENTRICITY   = .0000949
INCLINATION    = 98.1252
RA_OF_ASC_NODE = 46.4788
ARG_OF_PERICENTER = 110.8511
MEAN_ANOMALY   = 249.2797

EPHEMERIS_TYPE = 0
CLASSIFICATION_TYPE = U
NORAD_CAT_ID   = 28931
ELEMENT_SET_NO = 999
REV_AT_EPOCH   = 7670
BSTAR          = .31708E-3
MEAN_MOTION_DOT = .1847E-4
MEAN_MOTION_DDOT = 0

